{"fetched_at":"2026-04-13T09:53:55Z","count":1326,"tles":[{"name":"CZ-2F DEB","line1":"1 59593U 24078C   24117.16437429  .06643541  69424-5  71055-2 0  9992","line2":"2 59593  41.6118  40.5394 0251395 137.5527 224.6445 15.69435837   103","category":"Other"},{"name":"STARLINK-35320","line1":"1 65834U 25221M   26102.55174760  .00009821  00000+0  34322-3 0  9990","line2":"2 65834  53.1597 291.3571 0001275  97.3209 262.7937 15.30205621 29913","category":"Starlink"},{"name":"FENGYUN 1C DEB","line1":"1 38728U 99025ETV 26101.27678420  .00005446  00000+0  82720-3 0  9999","line2":"2 38728  99.2638 110.0395 0072105  47.1774   9.9950 14.72799669673694","category":"Weather"},{"name":"STARLINK-4331","line1":"1 53046U 22077D   26102.51752626  .00000401  00000+0  32030-4 0  9997","line2":"2 53046  97.6026 284.6575 0001395  93.1682 266.9705 15.05651143206086","category":"Starlink"},{"name":"STARLINK-11555 [DTC]","line1":"1 62915U 25027J   26102.48146708  .00142315  00000+0  10888-2 0  9990","line2":"2 62915  43.0029 144.2506 0003451 273.7220  86.3253 15.70941791 68501","category":"Starlink"},{"name":"STARLINK-5821","line1":"1 75821C 23088X   23185.71923611 -.00987125  00000-0 -56496-2 0  1856","line2":"2 75821  42.9984  44.4826 0001515 262.8630  93.1915 15.78851407    13","category":"Starlink"},{"name":"FENGYUN 1C DEB","line1":"1 32114U 99025CRG 26096.65959021  .00017185  00000+0  21812-2 0  9993","line2":"2 32114  99.9338 245.4158 0041589 354.8264   5.2507 14.81172133674289","category":"Weather"},{"name":"STARLINK-2441","line1":"1 48335U 21036BM  23362.46258166  .00004411  00000+0  31497-3 0  9995","line2":"2 48335  53.0528 102.9629 0001652  49.4470 310.6663 15.06382897147713","category":"Starlink"},{"name":"ECHOSTAR 19","line1":"1 41893U 16079A   26102.45150372  .00000000  00000+0  00000+0 0  9994","line2":"2 41893   0.0181 197.4569 0001161 190.5926 238.0502  1.00269075 34040","category":"Other"},{"name":"YAOGAN-36 01A","line1":"1 53943U 22120A   26102.33678351  .00004996  00000+0  21007-3 0  9998","line2":"2 53943  34.9928 339.0914 0003388 121.4755 238.6291 15.22790722197260","category":"Other"},{"name":"STARLINK-1287","line1":"1 45371U 20019M   23362.50171176  .00000428  00000+0  47669-4 0  9995","line2":"2 45371  53.0540 167.7717 0001472 105.9677 254.1475 15.06391696208828","category":"Starlink"},{"name":"ONEWEB-0661","line1":"1 55821U 23029AB  26102.31966509  .00000213  00000+0  53951-3 0  9998","line2":"2 55821  87.8924 302.8963 0001970  94.2800 265.8554 13.14502038150730","category":"Other"},{"name":"YAOGAN-41","line1":"1 58582U 23197A   26102.54333455 -.00000365  00000+0  00000+0 0  9996","line2":"2 58582   3.2515 312.1325 0012141 181.9309  25.5017  1.00268426  8662","category":"Other"},{"name":"STARLINK-34582","line1":"1 64781U 25147AC  26102.32037729  .00014559  00000+0  50270-3 0  9999","line2":"2 64781  53.1575  86.3275 0001130  86.0311 274.0819 15.30200330 43835","category":"Starlink"},{"name":"MEASAT-3A","line1":"1 35362U 09032A   26102.50738941 -.00000108  00000+0  00000+0 0  9999","line2":"2 35362   0.0347  26.8939 0003295 359.8666 156.6194  1.00271753  7379","category":"Other"},{"name":"STARLINK-3363","line1":"1 51135U 22005AH  26102.49991086 -.00000908  00000+0 -38996-4 0  9998","line2":"2 51135  53.2168 147.2345 0001427  88.6691 271.4465 15.08829166233834","category":"Starlink"},{"name":"STARLINK-11359 [DTC]","line1":"1 61884U 24204L   26102.22743885 -.00000461  00000+0  10517-5 0  9999","line2":"2 61884  53.1587 190.8167 0000984  91.7722 268.3408 15.69712116 82188","category":"Starlink"},{"name":"STARLINK-36628","line1":"1 67595U 26018G   26102.41746020  .00015448  00000+0  47980-3 0  9996","line2":"2 67595  97.2836 168.1569 0001434  89.1231 271.0176 15.33448281 12502","category":"Starlink"},{"name":"SAUDICOMSAT 5","line1":"1 31124U 07012H   26102.45289750  .00000563  00000+0  10585-3 0  9997","line2":"2 31124  98.3442  76.0217 0046892 333.9844  25.9004 14.68078254 13952","category":"Other"},{"name":"FLOCK 4S-38","line1":"1 47512C 21006DD  23256.33907407  .00052261  00000-0  14326-2 0  2569","line2":"2 47512  97.3864 315.5526 0006353 138.3824 156.3595 15.37273382    17","category":"Other"},{"name":"2023-091R","line1":"1 57181U 23091R   26102.47788425  .00002418  00000+0  13614-3 0  9995","line2":"2 57181  97.5135 157.2968 0015321  11.1136 349.0431 15.14098251153747","category":"Other"},{"name":"STARLINK-31881","line1":"1 59659U 24084F   26102.33912372 -.00004418  00000+0 -15112-3 0  9994","line2":"2 59659  43.0046 207.9375 0002009 275.8884  84.1738 15.27577095109569","category":"Starlink"},{"name":"STARLINK-34936","line1":"1 65898U 25224S   26102.31445589  .00012987  00000+0  44979-3 0  9993","line2":"2 65898  53.1577 215.0689 0001447  92.5927 267.5239 15.30203486 30028","category":"Starlink"},{"name":"YAOGAN-16 01B","line1":"1 39012U 12066B   26102.26169067 -.00000027  00000+0  61958-4 0  9990","line2":"2 39012  63.3525 100.2868 0430448  26.3109 335.9099 13.45506133657232","category":"Other"},{"name":"STARLINK-4106","line1":"1 53145U 22083P   26102.48285584 -.00005702  00000+0 -34027-3 0  9992","line2":"2 53145  53.2196  22.4175 0001426 112.6465 247.4678 15.08860108206323","category":"Starlink"},{"name":"STARLINK-11570 [DTC]","line1":"1 62992U 25031M   26102.48361463  .00133476  00000+0  10257-2 0  9995","line2":"2 62992  43.0038 158.0853 0003204 281.5876  78.4632 15.70868705 68049","category":"Starlink"},{"name":"STARLINK-6134","line1":"1 76134C 23090K   23185.63243056 -.00983384  00000-0 -60879-2 0  1859","line2":"2 76134  42.9990 215.1990 0001160 266.9474 269.3790 15.77084955    17","category":"Starlink"},{"name":"STARLINK-30230","line1":"1 57503U 23113J   26102.21660664  .00001348  00000+0  59960-4 0  9990","line2":"2 57503  43.0041 186.6353 0002063 262.7908  97.2709 15.26734148148694","category":"Starlink"},{"name":"STARLINK-11660 [DTC]","line1":"1 63761U 25089L   26102.23511937  .00134230  00000+0  10326-2 0  9995","line2":"2 63761  43.0001  89.8329 0001202 234.3953 125.6803 15.70844140 55364","category":"Starlink"},{"name":"FENGYUN 1C DEB","line1":"1 32212U 99025CVJ 26100.27636280  .00001660  00000+0  47968-3 0  9997","line2":"2 32212  99.5716 215.9668 0137258  94.6624 296.6532 14.40830169977689","category":"Weather"},{"name":"YAOGAN-30 09B","line1":"1 48424U 21039B   26102.35911978  .00002029  00000+0  15214-3 0  9999","line2":"2 48424  34.9954  72.1837 0004555 316.8354  43.1996 15.02429109269636","category":"Other"},{"name":"YAOGAN-43 01F","line1":"1 60463U 24148F   26102.54659975  .00009798  00000+0  31997-3 0  9993","line2":"2 60463  34.9902 206.6059 0007019 332.1845  27.8496 15.30951546 92218","category":"Other"},{"name":"STARLINK-35977","line1":"1 66604U 25270S   26102.38423836  .00011731  00000+0  43507-3 0  9990","line2":"2 66604  43.0008 225.4885 0001226 267.2036  92.8676 15.27584540 22867","category":"Starlink"},{"name":"SATCOM K1","line1":"1 16482U 86003B   26101.61627669 -.00000319  00000+0  00000+0 0  9993","line2":"2 16482  14.7014 351.5966 0001889 293.3160 259.7165  0.99559278123785","category":"Other"},{"name":"QZS-2 (QZSS/PRN 194)","line1":"1 42738U 17028A   26102.25959125 -.00000190  00000+0  00000+0 0  9990","line2":"2 42738  39.5318 244.1140 0741429 270.6872 278.4182  1.00251508  6965","category":"Other"},{"name":"GALAXY 33 (G-33)","line1":"1 54026U 22128A   26102.06476382  .00000081  00000+0  00000+0 0  9996","line2":"2 54026   0.0407  45.3817 0001847 338.1643  67.0557  1.00272516 13071","category":"Other"},{"name":"FENGYUN 1C DEB","line1":"1 29800U 99025CS  26102.53603042  .00001641  00000+0  10741-2 0  9994","line2":"2 29800  98.2812 117.6686 0130225 247.0354 268.3363 13.99342030972658","category":"Weather"},{"name":"ONEWEB-0042","line1":"1 45441U 20020T   26102.04981481  .00000032  00000+0  55747-4 0  9994","line2":"2 45441  87.8922  34.2012 0001848  82.0071 278.1267 13.11414528293992","category":"Other"},{"name":"STARLINK-5908","line1":"1 55951U 23037AP  26102.52984294 -.00000045  00000+0  39926-5 0  9997","line2":"2 55951  70.0009 198.9488 0003083 269.3786  90.7019 14.98333459169051","category":"Starlink"},{"name":"KZ-1A R/B","line1":"1 58649U 23205E   24024.57093837  .00502662  23497-5  87088-3 0  9993","line2":"2 58649  97.4037  56.1224 0144420 280.1869  78.3140 15.85805945  4796","category":"Other"},{"name":"STARLINK-34706","line1":"1 64845U 25152D   26102.38420682  .00002157  00000+0  15362-3 0  9990","line2":"2 64845  97.6031 318.6565 0002461  88.2458 271.9050 15.05652222 40487","category":"Starlink"},{"name":"IRIDIUM 33 DEB","line1":"1 35625U 97051QX  23173.42980416  .00002592  00000+0  11603-2 0  9993","line2":"2 35625  86.1968  55.9654 0122303 216.1662 269.5707 14.18353631729010","category":"Other"},{"name":"ONEWEB-0463","line1":"1 51650U 22012AE  26102.52573892  .00000094  00000+0  20988-3 0  9998","line2":"2 51650  87.9186  18.9229 0001715  74.5372 285.5949 13.17647920205022","category":"Other"},{"name":"STARLINK-11414 [DTC]","line1":"1 61948U 24209K   26102.45639574  .00100757  00000+0  82568-3 0  9990","line2":"2 61948  53.1571 204.6328 0001556 336.6502  23.4445 15.69732104 82021","category":"Starlink"},{"name":"STARLINK-36642","line1":"1 67659U 26022M   26102.36404201  .00004780  00000+0  15036-3 0  9992","line2":"2 67659  97.2869 136.2283 0001475  84.8696 275.2715 15.33431666 10737","category":"Starlink"},{"name":"FENGYUN 1C DEB","line1":"1 31220U 99025BLA 23177.45514184  .00015476  00000+0  32389-2 0  9994","line2":"2 31220  99.0292 174.4105 0045455 329.3929 184.5966 14.59214939852239","category":"Weather"},{"name":"STARLINK-1989","line1":"1 47585U 21009AP  23362.35937073 -.00000869  00000+0 -39434-4 0  9995","line2":"2 47585  53.0552  23.4192 0002093 109.4592 250.6623 15.06390283160475","category":"Starlink"},{"name":"STARLINK-5587","line1":"1 57245U 23094AD  26102.54146927 -.00000094  00000+0  60931-5 0  9997","line2":"2 57245  43.0011 189.0069 0000804 298.6818  61.3953 15.27574699152416","category":"Starlink"}]}